CCSDS_OMM_VERS = 2.0
CREATION_DATE  = 
ORIGINATOR     = 

OBJECT_NAME    = ATLAS CENTAUR R/B
OBJECT_ID      = 1972-065B
CENTER_NAME    = EARTH
REF_FRAME      = TEME
TIME_SYSTEM    = UTC
MEAN_ELEMENT_THEORY = SGP/SGP4

EPOCH          = 2026-01-03T21:25:36.301728
MEAN_MOTION    = 14.77482070
ECCENTRICITY   = .00340219
INCLINATION    = 35.0031
RA_OF_ASC_NODE = 325.4269
ARG_OF_PERICENTER = 186.4295
MEAN_ANOMALY   = 173.5972

EPHEMERIS_TYPE = 0
CLASSIFICATION_TYPE = U
NORAD_CAT_ID   = 6155
ELEMENT_SET_NO = 999
REV_AT_EPOCH   = 83167
BSTAR          = .31079038E-3
MEAN_MOTION_DOT = .2251E-4
MEAN_MOTION_DDOT = 0

CCSDS_OMM_VERS = 2.0
CREATION_DATE  = 
ORIGINATOR     = 

OBJECT_NAME    = SL-8 R/B
OBJECT_ID      = 1975-112B
CENTER_NAME    = EARTH
REF_FRAME      = TEME
TIME_SYSTEM    = UTC
MEAN_ELEMENT_THEORY = SGP/SGP4

EPOCH          = 2026-01-03T19:29:22.276032
MEAN_MOTION    = 14.38163282
ECCENTRICITY   = .00167052
INCLINATION    = 74.0609
RA_OF_ASC_NODE = 138.2590
ARG_OF_PERICENTER = 247.5709
MEAN_ANOMALY   = 112.3676

EPHEMERIS_TYPE = 0
CLASSIFICATION_TYPE = U
NORAD_CAT_ID   = 8459
ELEMENT_SET_NO = 999
REV_AT_EPOCH   = 62254
BSTAR          = .17638404E-3
MEAN_MOTION_DOT = .51E-5
MEAN_MOTION_DDOT = 0

CCSDS_OMM_VERS = 2.0
CREATION_DATE  = 
ORIGINATOR     = 

OBJECT_NAME    = SL-3 R/B
OBJECT_ID      = 1977-057B
CENTER_NAME    = EARTH
REF_FRAME      = TEME
TIME_SYSTEM    = UTC
MEAN_ELEMENT_THEORY = SGP/SGP4

EPOCH          = 2026-01-03T22:21:49.199616
MEAN_MOTION    = 15.43578875
ECCENTRICITY   = .00079133
INCLINATION    = 97.5688
RA_OF_ASC_NODE = 173.1350
ARG_OF_PERICENTER = 148.9105
MEAN_ANOMALY   = 211.2612

EPHEMERIS_TYPE = 0
CLASSIFICATION_TYPE = U
NORAD_CAT_ID   = 10114
ELEMENT_SET_NO = 999
REV_AT_EPOCH   = 65833
BSTAR          = .40284006E-3
MEAN_MOTION_DOT = .18049E-3
MEAN_MOTION_DDOT = 0

CCSDS_OMM_VERS = 2.0
CREATION_DATE  = 
ORIGINATOR     = 

OBJECT_NAME    = SEASAT 1
OBJECT_ID      = 1978-064A
CENTER_NAME    = EARTH
REF_FRAME      = TEME
TIME_SYSTEM    = UTC
MEAN_ELEMENT_THEORY = SGP/SGP4

EPOCH          = 2026-01-03T21:18:33.241536
MEAN_MOTION    = 14.46091310
ECCENTRICITY   = .00012238
INCLINATION    = 108.0141
RA_OF_ASC_NODE = 349.5039
ARG_OF_PERICENTER = 262.5972
MEAN_ANOMALY   = 97.5034

EPHEMERIS_TYPE = 0
CLASSIFICATION_TYPE = U
NORAD_CAT_ID   = 10967
ELEMENT_SET_NO = 999
REV_AT_EPOCH   = 49714
BSTAR          = .24315251E-3
MEAN_MOTION_DOT = .732E-5
MEAN_MOTION_DDOT = 0

CCSDS_OMM_VERS = 2.0
CREATION_DATE  = 
ORIGINATOR     = 

OBJECT_NAME    = SL-14 R/B
OBJECT_ID      = 1979-011B
CENTER_NAME    = EARTH
REF_FRAME      = TEME
TIME_SYSTEM    = UTC
MEAN_ELEMENT_THEORY = SGP/SGP4

EPOCH          = 2026-01-03T22:09:01.365408
MEAN_MOTION    = 14.91806346
ECCENTRICITY   = .00146958
INCLINATION    = 82.5247
RA_OF_ASC_NODE = 158.0053
ARG_OF_PERICENTER = 274.4666
MEAN_ANOMALY   = 85.4874

EPHEMERIS_TYPE = 0
CLASSIFICATION_TYPE = U
NORAD_CAT_ID   = 11267
ELEMENT_SET_NO = 999
REV_AT_EPOCH   = 51912
BSTAR          = .11746615E-3
MEAN_MOTION_DOT = .1211E-4
MEAN_MOTION_DDOT = 0

CCSDS_OMM_VERS = 2.0
CREATION_DATE  = 
ORIGINATOR     = 

OBJECT_NAME    = SL-8 R/B
OBJECT_ID      = 1979-089B
CENTER_NAME    = EARTH
REF_FRAME      = TEME
TIME_SYSTEM    = UTC
MEAN_ELEMENT_THEORY = SGP/SGP4

EPOCH          = 2026-01-03T23:06:28.851552
MEAN_MOTION    = 14.42298792
ECCENTRICITY   = .00150127
INCLINATION    = 74.0673
RA_OF_ASC_NODE = 210.8485
ARG_OF_PERICENTER = 36.3881
MEAN_ANOMALY   = 323.8293

EPHEMERIS_TYPE = 0
CLASSIFICATION_TYPE = U
NORAD_CAT_ID   = 11574
ELEMENT_SET_NO = 999
REV_AT_EPOCH   = 42677
BSTAR          = .11502057E-3
MEAN_MOTION_DOT = .354E-5
MEAN_MOTION_DDOT = 0

CCSDS_OMM_VERS = 2.0
CREATION_DATE  = 
ORIGINATOR     = 

OBJECT_NAME    = SL-14 R/B
OBJECT_ID      = 1980-005B
CENTER_NAME    = EARTH
REF_FRAME      = TEME
TIME_SYSTEM    = UTC
MEAN_ELEMENT_THEORY = SGP/SGP4

EPOCH          = 2026-01-03T23:03:14.988096
MEAN_MOTION    = 14.90825538
ECCENTRICITY   = .0016414
INCLINATION    = 82.5138
RA_OF_ASC_NODE = 8.6219
ARG_OF_PERICENTER = 24.7634
MEAN_ANOMALY   = 335.4369

EPHEMERIS_TYPE = 0
CLASSIFICATION_TYPE = U
NORAD_CAT_ID   = 11672
ELEMENT_SET_NO = 999
REV_AT_EPOCH   = 46684
BSTAR          = .10869493E-3
MEAN_MOTION_DOT = .1097E-4
MEAN_MOTION_DDOT = 0

CCSDS_OMM_VERS = 2.0
CREATION_DATE  = 
ORIGINATOR     = 

OBJECT_NAME    = SL-8 R/B
OBJECT_ID      = 1981-003B
CENTER_NAME    = EARTH
REF_FRAME      = TEME
TIME_SYSTEM    = UTC
MEAN_ELEMENT_THEORY = SGP/SGP4

EPOCH          = 2026-01-03T23:24:31.607712
MEAN_MOTION    = 15.07936115
ECCENTRICITY   = .02751941
INCLINATION    = 82.9366
RA_OF_ASC_NODE = 349.7412
ARG_OF_PERICENTER = 44.0129
MEAN_ANOMALY   = 318.2653

EPHEMERIS_TYPE = 0
CLASSIFICATION_TYPE = U
NORAD_CAT_ID   = 12139
ELEMENT_SET_NO = 999
REV_AT_EPOCH   = 30491
BSTAR          = .82394823E-3
MEAN_MOTION_DOT = .31222E-3
MEAN_MOTION_DDOT = 0

CCSDS_OMM_VERS = 2.0
CREATION_DATE  = 
ORIGINATOR     = 

OBJECT_NAME    = SL-3 R/B
OBJECT_ID      = 1981-046B
CENTER_NAME    = EARTH
REF_FRAME      = TEME
TIME_SYSTEM    = UTC
MEAN_ELEMENT_THEORY = SGP/SGP4

EPOCH          = 2026-01-03T23:35:51.251712
MEAN_MOTION    = 15.40168981
ECCENTRICITY   = .00179976
INCLINATION    = 81.2316
RA_OF_ASC_NODE = 7.3159
ARG_OF_PERICENTER = 241.7809
MEAN_ANOMALY   = 118.1616

EPHEMERIS_TYPE = 0
CLASSIFICATION_TYPE = U
NORAD_CAT_ID   = 12465
ELEMENT_SET_NO = 999
REV_AT_EPOCH   = 42846
BSTAR          = .39509346E-3
MEAN_MOTION_DOT = .15979E-3
MEAN_MOTION_DDOT = 0

CCSDS_OMM_VERS = 2.0
CREATION_DATE  = 
ORIGINATOR     = 

OBJECT_NAME    = SL-3 R/B
OBJECT_ID      = 1981-103B
CENTER_NAME    = EARTH
REF_FRAME      = TEME
TIME_SYSTEM    = UTC
MEAN_ELEMENT_THEORY = SGP/SGP4

EPOCH          = 2026-01-03T21:43:25.350528
MEAN_MOTION    = 15.20552907
ECCENTRICITY   = .00136168
INCLINATION    = 81.1609
RA_OF_ASC_NODE = 289.3910
ARG_OF_PERICENTER = 138.0337
MEAN_ANOMALY   = 222.1940

EPHEMERIS_TYPE = 0
CLASSIFICATION_TYPE = U
NORAD_CAT_ID   = 12904
ELEMENT_SET_NO = 999
REV_AT_EPOCH   = 96338
BSTAR          = .39080335E-3
MEAN_MOTION_DOT = .86E-4
MEAN_MOTION_DDOT = 0

CCSDS_OMM_VERS = 2.0
CREATION_DATE  = 
ORIGINATOR     = 

OBJECT_NAME    = SL-3 R/B
OBJECT_ID      = 1982-013B
CENTER_NAME    = EARTH
REF_FRAME      = TEME
TIME_SYSTEM    = UTC
MEAN_ELEMENT_THEORY = SGP/SGP4

EPOCH          = 2026-01-03T22:36:58.716864
MEAN_MOTION    = 15.21315740
ECCENTRICITY   = .00236883
INCLINATION    = 81.1730
RA_OF_ASC_NODE = 236.6185
ARG_OF_PERICENTER = 39.7352
MEAN_ANOMALY   = 320.5609

EPHEMERIS_TYPE = 0
CLASSIFICATION_TYPE = U
NORAD_CAT_ID   = 13068
ELEMENT_SET_NO = 999
REV_AT_EPOCH   = 39450
BSTAR          = .27410695E-3
MEAN_MOTION_DOT = .6206E-4
MEAN_MOTION_DDOT = 0

CCSDS_OMM_VERS = 2.0
CREATION_DATE  = 
ORIGINATOR     = 

OBJECT_NAME    = SL-3 R/B
OBJECT_ID      = 1982-039B
CENTER_NAME    = EARTH
REF_FRAME      = TEME
TIME_SYSTEM    = UTC
MEAN_ELEMENT_THEORY = SGP/SGP4

EPOCH          = 2026-01-03T21:51:13.606560
MEAN_MOTION    = 15.09685230
ECCENTRICITY   = .0029612
INCLINATION    = 81.1704
RA_OF_ASC_NODE = 290.5872
ARG_OF_PERICENTER = 177.0832
MEAN_ANOMALY   = 183.0572

EPHEMERIS_TYPE = 0
CLASSIFICATION_TYPE = U
NORAD_CAT_ID   = 13154
ELEMENT_SET_NO = 999
REV_AT_EPOCH   = 37186
BSTAR          = .29759409E-3
MEAN_MOTION_DOT = .4865E-4
MEAN_MOTION_DDOT = 0

