ATLAS CENTAUR R/B       
1 06155U 72065B   26003.89278127  .00002251  00000+0  31079-3 0  9994
2 06155  35.0031 325.4269 0034021 186.4295 173.5972 14.77482070831676
SL-8 R/B                
1 08459U 75112B   26003.81206338  .00000510  00000+0  17638-3 0  9997
2 08459  74.0609 138.2590 0016705 247.5709 112.3676 14.38163282622548
SL-3 R/B                
1 10114U 77057B   26003.93181944  .00018049  00000+0  40284-3 0  9995
2 10114  97.5688 173.1350 0007913 148.9105 211.2612 15.43578875658333
SEASAT 1                
1 10967U 78064A   26003.88788474  .00000732  00000+0  24315-3 0  9992
2 10967 108.0141 349.5039 0001223 262.5972  97.5034 14.46091310497146
SL-14 R/B               
1 11267U 79011B   26003.92293247  .00001211  00000+0  11747-3 0  9991
2 11267  82.5247 158.0053 0014695 274.4666  85.4874 14.91806346519125
SL-8 R/B                
1 11574U 79089B   26003.96283393  .00000354  00000+0  11502-3 0  9998
2 11574  74.0673 210.8485 0015012  36.3881 323.8293 14.42298792426777
SL-14 R/B               
1 11672U 80005B   26003.96059014  .00001097  00000+0  10869-3 0  9998
2 11672  82.5138   8.6219 0016414  24.7634 335.4369 14.90825538466840
SL-8 R/B                
1 12139U 81003B   26003.97536583  .00031222  00000+0  82395-3 0  9994
2 12139  82.9366 349.7412 0275194  44.0129 318.2653 15.07936115304913
SL-3 R/B                
1 12465U 81046B   26003.98323208  .00015979  00000+0  39509-3 0  9992
2 12465  81.2316   7.3159 0017997 241.7809 118.1616 15.40168981428461
SL-3 R/B                
1 12904U 81103B   26003.90515452  .00008600  00000+0  39080-3 0  9997
2 12904  81.1609 289.3910 0013616 138.0337 222.1940 15.20552907963382
SL-3 R/B                
1 13068U 82013B   26003.94234626  .00006206  00000+0  27411-3 0  9990
2 13068  81.1730 236.6185 0023688  39.7352 320.5609 15.21315740394502
SL-3 R/B                
1 13154U 82039B   26003.91057415  .00004865  00000+0  29759-3 0  9996
2 13154  81.1704 290.5872 0029612 177.0832 183.0572 15.09685230371868
